NORAD_CAT_ID,OBJECT_NAME,OBJECT_TYPE,EPOCH,MEAN_MOTION,ECCENTRICITY,INCLINATION,RA_OF_ASC_NODE,ARG_OF_PERICENTER,MEAN_ANOMALY,BSTAR,MEAN_MOTION_DOT,MEAN_MOTION_DDOT,TLE_LINE0,TLE_LINE1,TLE_LINE2,SEMIMAJOR_AXIS,PERIOD,APOGEE,PERIGEE,DECAYED
50827.0,STARLINK-3329,PAYLOAD,2022-06-12 08:35:07,15.08835667,0.0002256,53.2171,182.8334,41.4582,318.658,9.2779e-05,1.188e-05,0.0,0 STARLINK-3329,1 50827U 22001AA  22163.35772699  .00001188  00000-0  92779-4 0  9995,2 50827  53.2171 182.8334 0002256  41.4582 318.6580 15.08835667 25402,6917.894,95.438,541.319,538.198,0.0
50827.0,STARLINK-3329,PAYLOAD,2022-06-12 18:07:26,15.08837964,0.0002291,53.2173,181.0493,42.0364,318.0804,0.00010074,1.315e-05,0.0,0 STARLINK-3329,1 50827U 22001AA  22163.75516671  .00001315  00000-0  10074-3 0  9994,2 50827  53.2173 181.0493 0002291  42.0364 318.0804 15.08837964 24195,6917.887,95.438,541.337,538.1669999999998,0.0
50827.0,STARLINK-3329,PAYLOAD,2022-06-13 08:25:54,15.08844018,0.0002317,53.2174,178.373,43.1787,316.9386,0.00011686,1.572e-05,0.0,0 STARLINK-3329,1 50827U 22001AA  22164.35132387  .00001572  00000-0  11686-3 0  9994,2 50827  53.2174 178.3730 0002317  43.1787 316.9386 15.08844018 24289,6917.868,95.437,541.336,538.13,0.0
50827.0,STARLINK-3329,PAYLOAD,2022-06-14 09:52:04,15.08851598,0.0002327,53.2173,173.6151,44.5003,315.6176,0.00014117,1.96e-05,0.0,0 STARLINK-3329,1 50827U 22001AA  22165.41115755  .00001960  00000-0  14117-3 0  9995,2 50827  53.2173 173.6151 0002327  44.5003 315.6176 15.08851598 24442,6917.845,95.437,541.32,538.1,0.0
50827.0,STARLINK-3329,PAYLOAD,2022-06-14 17:49:00,15.08837944,0.0002306,53.2169,172.1282,43.2561,316.8612,5.74e-06,-1.97e-06,0.0,0 STARLINK-3329,1 50827U 22001AA  22165.74236845 -.00000197  00000-0  57400-5 0  9991,2 50827  53.2169 172.1282 0002306  43.2561 316.8612 15.08837944 25761,6917.887,95.438,541.347,538.156,0.0
50827.0,STARLINK-3329,PAYLOAD,2022-06-15 09:42:51,15.0884017,0.0002333,53.2168,169.1546,43.0198,317.0977,-6.0728e-06,-3.85e-06,0.0,0 STARLINK-3329,1 50827U 22001AA  22166.40476676 -.00000385  00000-0 -60728-5 0  9990,2 50827  53.2168 169.1546 0002333  43.0198 317.0977 15.08840170 24595,6917.88,95.438,541.359,538.131,0.0
50827.0,STARLINK-3329,PAYLOAD,2022-06-15 17:39:47,15.08842628,0.0002355,53.217,167.6679,43.4879,316.6299,1.3159e-05,-7.9e-07,0.0,0 STARLINK-3329,1 50827U 22001AA  22166.73596435 -.00000079  00000-0  13159-4 0  9996,2 50827  53.2170 167.6679 0002355  43.4879 316.6299 15.08842628 24640,6917.871999999999,95.437,541.367,538.1080000000002,0.0
50827.0,STARLINK-3329,PAYLOAD,2022-06-19 10:41:23,15.08833416,0.0002574,53.2174,151.0164,50.566,309.5559,3.0875e-05,2.03e-06,0.0,0 STARLINK-3329,1 50827U 22001AA  22170.44541488  .00000203  00000-0  30875-4 0  9999,2 50827  53.2174 151.0164 0002574  50.5660 309.5559 15.08833416 25208,6917.901,95.438,541.5459999999998,537.985,0.0
50827.0,STARLINK-3329,PAYLOAD,2022-06-19 15:27:33,15.08833836,0.0002651,53.2176,150.1241,49.5842,310.5381,7.0961e-05,8.41e-06,0.0,0 STARLINK-3329,1 50827U 22001AA  22170.64413435  .00000841  00000-0  70961-4 0  9999,2 50827  53.2176 150.1241 0002651  49.5842 310.5381 15.08833836 26507,6917.899,95.438,541.5980000000002,537.93,0.0
50827.0,STARLINK-3329,PAYLOAD,2022-06-19 20:13:42,15.08837008,0.0002606,53.2174,149.2321,50.418,309.7042,8.287799999999999e-05,1.031e-05,0.0,0 STARLINK-3329,1 50827U 22001AA  22170.84285273  .00001031  00000-0  82878-4 0  9990,2 50827  53.2174 149.2321 0002606  50.4180 309.7042 15.08837008 25260,6917.89,95.438,541.557,537.952,0.0
50827.0,STARLINK-3329,PAYLOAD,2022-06-20 08:56:47,15.08841469,0.0002641,53.2175,146.8531,51.2017,308.9211,0.00011227,1.499e-05,0.0,0 STARLINK-3329,1 50827U 22001AA  22171.37277057  .00001499  00000-0  11227-3 0  9997,2 50827  53.2175 146.8531 0002641  51.2017 308.9211 15.08841469 26619,6917.876,95.437,541.568,537.914,0.0
50827.0,STARLINK-3329,PAYLOAD,2022-06-20 10:32:10,15.08842181,0.0002644,53.2175,146.5557,51.3109,308.8119,0.0001176,1.584e-05,0.0,0 STARLINK-3329,1 50827U 22001AA  22171.43901017  .00001584  00000-0  11760-3 0  9991,2 50827  53.2175 146.5557 0002644  51.3109 308.8119 15.08842181 25358,6917.874,95.437,541.568,537.91,0.0
50827.0,STARLINK-3329,PAYLOAD,2022-06-20 20:04:28,15.08846401,0.0002667,53.2176,144.7716,51.7951,308.3281,0.00016171,2.287e-05,0.0,0 STARLINK-3329,1 50827U 22001AA  22171.83644623  .00002287  00000-0  16171-3 0  9994,2 50827  53.2176 144.7716 0002667  51.7951 308.3281 15.08846401 25411,6917.861,95.437,541.571,537.881,0.0
50827.0,STARLINK-3329,PAYLOAD,2022-06-21 07:12:11,15.08842413,0.0002687,53.2177,142.69,52.5282,307.5954,0.00012683,1.731e-05,0.0,0 STARLINK-3329,1 50827U 22001AA  22172.30012985  .00001731  00000-0  12683-3 0  9994,2 50827  53.2177 142.6900 0002687  52.5282 307.5954 15.08842413 25486,6917.873000000001,95.437,541.597,537.879,0.0
50827.0,STARLINK-3329,PAYLOAD,2022-06-21 15:09:07,15.08839064,0.0002688,53.2178,141.2033,53.2554,306.8685,7.0728e-05,8.37e-06,0.0,0 STARLINK-3329,1 50827U 22001AA  22172.63133334  .00000837  00000-0  70728-4 0  9993,2 50827  53.2178 141.2033 0002688  53.2554 306.8685 15.08839064 26808,6917.8830000000025,95.438,541.6080000000002,537.889,0.0
50827.0,STARLINK-3329,PAYLOAD,2022-06-22 03:52:11,15.08847312,0.0002703,53.2178,138.8245,54.431,305.6934,9.4033e-05,1.209e-05,0.0,0 STARLINK-3329,1 50827U 22001AA  22173.16124639  .00001209  00000-0  94033-4 0  9999,2 50827  53.2178 138.8245 0002703  54.4310 305.6934 15.08847312 26883,6917.858,95.437,541.5930000000002,537.8530000000002,0.0
50827.0,STARLINK-3329,PAYLOAD,2022-06-22 07:02:57,15.08847569,0.0002702,53.218,138.2297,54.5532,305.5712,8.6549e-05,1.09e-05,0.0,0 STARLINK-3329,1 50827U 22001AA  22173.29372579  .00001090  00000-0  86549-4 0  9992,2 50827  53.2180 138.2297 0002702  54.5532 305.5712 15.08847569 25632,6917.857,95.437,541.591,537.8530000000002,0.0
50827.0,STARLINK-3329,PAYLOAD,2022-06-22 14:59:54,15.08839373,0.0002751,53.2179,136.743,54.5469,305.578,-1.4533e-05,-5.2e-06,0.0,0 STARLINK-3329,1 50827U 22001AA  22173.62493254 -.00000520  00000-0 -14533-4 0  9996,2 50827  53.2179 136.7430 0002751  54.5469 305.5780 15.08839373 26950,6917.882,95.438,541.65,537.844,0.0
50827.0,STARLINK-3329,PAYLOAD,2022-06-23 06:53:45,15.08842737,0.0002791,53.2177,133.7699,54.7087,305.4166,-3.7063e-05,-8.78e-06,0.0,0 STARLINK-3329,1 50827U 22001AA  22174.28732956 -.00000878  00000-0 -37063-4 0  9993,2 50827  53.2177 133.7699 0002791  54.7087 305.4166 15.08842737 25789,6917.871999999999,95.437,541.668,537.806,0.0
50827.0,STARLINK-3329,PAYLOAD,2022-06-23 14:50:40,15.08842722,0.0002605,53.2179,132.2824,55.2492,304.8745,9.0982e-05,1.16e-05,0.0,0 STARLINK-3329,1 50827U 22001AA  22174.61852531  .00001160  00000-0  90982-4 0  9994,2 50827  53.2179 132.2824 0002605  55.2492 304.8745 15.08842722 27103,6917.871999999999,95.437,541.539,537.935,0.0
50827.0,STARLINK-3329,PAYLOAD,2022-06-24 03:33:46,15.08835298,0.0002692,53.2185,129.9037,57.4004,302.7248,-4.5116e-06,-3.6000000000000007e-06,0.0,0 STARLINK-3329,1 50827U 22001AA  22175.14845362 -.00000360  00000-0 -45116-5 0  9990,2 50827  53.2185 129.9037 0002692  57.4004 302.7248 15.08835298 27181,6917.895,95.438,541.622,537.8969999999998,0.0
50827.0,STARLINK-3329,PAYLOAD,2022-06-24 06:44:32,15.08832952,0.0002672,53.2185,129.3091,58.6878,301.4376,-4.319399999999999e-05,-9.76e-06,0.0,0 STARLINK-3329,1 50827U 22001AA  22175.28093646 -.00000976  00000-0 -43194-4 0  9991,2 50827  53.2185 129.3091 0002672  58.6878 301.4376 15.08832952 25938,6917.901999999999,95.438,541.615,537.918,0.0
50827.0,STARLINK-3329,PAYLOAD,2022-06-25 06:35:19,15.08838836,0.0002656,53.2188,124.8494,57.9113,302.2137,7.1169e-05,8.44e-06,0.0,0 STARLINK-3329,1 50827U 22001AA  22176.27453278  .00000844  00000-0  71169-4 0  9997,2 50827  53.2188 124.8494 0002656  57.9113 302.2137 15.08838836 27353,6917.884,95.438,541.586,537.9119999999998,0.0
50827.0,STARLINK-3329,PAYLOAD,2022-06-26 12:47:39,15.08837767,0.0002617,53.2183,119.1995,57.0527,303.0717,0.00011595,1.557e-05,0.0,0 STARLINK-3329,1 50827U 22001AA  22177.53309373  .00001557  00000-0  11595-3 0  9991,2 50827  53.2183 119.1995 0002617  57.0527 303.0717 15.08837767 27544,6917.887,95.438,541.563,537.942,0.0
50827.0,STARLINK-3329,PAYLOAD,2022-06-27 07:52:17,15.08837318,0.000252,53.218,115.6306,55.4938,304.6292,-1.2293e-05,-4.84e-06,0.0,0 STARLINK-3329,1 50827U 22001AA  22178.32797635 -.00000484  00000-0 -12293-4 0  9998,2 50827  53.2180 115.6306 0002520  55.4938 304.6292 15.08837318 26398,6917.889,95.438,541.497,538.01,0.0
50827.0,STARLINK-3329,PAYLOAD,2022-06-28 04:32:18,15.08826279,0.0002438,53.2182,111.765,57.0794,303.0433,-5.3909e-05,-1.146e-05,0.0,0 STARLINK-3329,1 50827U 22001AA  22179.18910660 -.00001146  00000-0 -53909-4 0  9993,2 50827  53.2182 111.7650 0002438  57.0794 303.0433 15.08826279 27794,6917.922,95.438,541.474,538.101,0.0
50827.0,STARLINK-3329,PAYLOAD,2022-06-28 12:29:14,15.08829493,0.0002423,53.2182,110.2787,57.7697,302.3529,-4.7963e-05,-1.051e-05,0.0,0 STARLINK-3329,1 50827U 22001AA  22179.52030657 -.00001051  00000-0 -47963-4 0  9998,2 50827  53.2182 110.2787 0002423  57.7697 302.3529 15.08829493 26576,6917.913000000001,95.438,541.4540000000002,538.101,0.0
50827.0,STARLINK-3329,PAYLOAD,2022-06-28 18:50:46,15.08834244,0.0002486,53.2183,109.0889,58.4066,301.7168,-9.3727e-05,-1.7800000000000002e-05,0.0,0 STARLINK-3329,1 50827U 22001AA  22179.78526599 -.00001780  00000-0 -93727-4 0  9999,2 50827  53.2183 109.0889 0002486  58.4066 301.7168 15.08834244 26610,6917.898,95.438,541.4830000000002,538.043,0.0
50827.0,STARLINK-3329,PAYLOAD,2022-06-29 12:20:01,15.08833243,0.0002471,53.2185,105.8183,60.1609,299.9629,5.7321e-05,6.24e-06,0.0,0 STARLINK-3329,1 50827U 22001AA  22180.51390552  .00000624  00000-0  57321-4 0  9994,2 50827  53.2185 105.8183 0002471  60.1609 299.9629 15.08833243 26720,6917.901,95.438,541.475,538.057,0.0
